[{"OBJECT_NAME":"STARLINK-1008","OBJECT_ID":"2019-074B","EPOCH":"2026-03-05T15:49:08.539104","MEAN_MOTION":15.31051104,"ECCENTRICITY":0.00013076,"INCLINATION":53.1581,"RA_OF_ASC_NODE":197.5006,"ARG_OF_PERICENTER":77.1641,"MEAN_ANOMALY":282.9506,"EPHEMERIS_TYPE":0,"CLASSIFICATION_TYPE":"U","NORAD_CAT_ID":44714,"ELEMENT_SET_NO":999,"REV_AT_EPOCH":34825,"BSTAR":0.00012471091,"MEAN_MOTION_DOT":3.432e-5,"MEAN_MOTION_DDOT":0},{"OBJECT_NAME":"STARLINK-1012","OBJECT_ID":"2019-074F","EPOCH":"2026-03-05T16:51:49.393728","MEAN_MOTION":15.30200993,"ECCENTRICITY":0.00011183,"INCLINATION":53.1615,"RA_OF_ASC_NODE":197.3258,"ARG_OF_PERICENTER":76.5728,"MEAN_ANOMALY":283.5398,"EPHEMERIS_TYPE":0,"CLASSIFICATION_TYPE":"U","NORAD_CAT_ID":44718,"ELEMENT_SET_NO":999,"REV_AT_EPOCH":34825,"BSTAR":1.0391395e-5,"MEAN_MOTION_DOT":-5.1e-7,"MEAN_MOTION_DDOT":0},{"OBJECT_NAME":"STARLINK-1017","OBJECT_ID":"2019-074L","EPOCH":"2026-03-05T14:36:13.276800","MEAN_MOTION":15.236885,"ECCENTRICITY":9.26e-5,"INCLINATION":53.0553,"RA_OF_ASC_NODE":190.2852,"ARG_OF_PERICENTER":104.4852,"MEAN_ANOMALY":255.6247,"EPHEMERIS_TYPE":0,"CLASSIFICATION_TYPE":"U","NORAD_CAT_ID":44723,"ELEMENT_SET_NO":999,"REV_AT_EPOCH":34834,"BSTAR":0.002047,"MEAN_MOTION_DOT":0.00049765,"MEAN_MOTION_DDOT":0},{"OBJECT_NAME":"STARLINK-1019","OBJECT_ID":"2019-074M","EPOCH":"2026-03-06T00:00:02.000160","MEAN_MOTION":15.8024523,"ECCENTRICITY":0.0002273,"INCLINATION":53.0428,"RA_OF_ASC_NODE":155.2499,"ARG_OF_PERICENTER":187.02,"MEAN_ANOMALY":117.1129,"EPHEMERIS_TYPE":0,"CLASSIFICATION_TYPE":"U","NORAD_CAT_ID":44724,"ELEMENT_SET_NO":999,"REV_AT_EPOCH":598,"BSTAR":0.00069019981,"MEAN_MOTION_DOT":0.00133756,"MEAN_MOTION_DDOT":0},{"OBJECT_NAME":"STARLINK-1020","OBJECT_ID":"2019-074N","EPOCH":"2026-03-05T19:34:06.215808","MEAN_MOTION":15.30188416,"ECCENTRICITY":0.00013094,"INCLINATION":53.1618,"RA_OF_ASC_NODE":221.8429,"ARG_OF_PERICENTER":91.4407,"MEAN_ANOMALY":268.6743,"EPHEMERIS_TYPE":0,"CLASSIFICATION_TYPE":"U","NORAD_CAT_ID":44725,"ELEMENT_SET_NO":999,"REV_AT_EPOCH":34791,"BSTAR":-7.927936e-6,"MEAN_MOTION_DOT":-5.94e-6,"MEAN_MOTION_DDOT":0},{"OBJECT_NAME":"STARLINK-1031","OBJECT_ID":"2019-074Z","EPOCH":"2026-03-06T00:00:02.000160","MEAN_MOTION":15.88928768,"ECCENTRICITY":0.00042583,"INCLINATION":53.0396,"RA_OF_ASC_NODE":138.8326,"ARG_OF_PERICENTER":345.7314,"MEAN_ANOMALY":59.867,"EPHEMERIS_TYPE":0,"CLASSIFICATION_TYPE":"U","NORAD_CAT_ID":44736,"ELEMENT_SET_NO":999,"REV_AT_EPOCH":595,"BSTAR":0.00074721876,"MEAN_MOTION_DOT":0.00222099,"MEAN_MOTION_DDOT":0},{"OBJECT_NAME":"STARLINK-1036","OBJECT_ID":"2019-074AE","EPOCH":"2026-03-06T00:00:02.000160","MEAN_MOTION":15.55049333,"ECCENTRICITY":0.00028897,"INCLINATION":53.0501,"RA_OF_ASC_NODE":206.4018,"ARG_OF_PERICENTER":249.5728,"MEAN_ANOMALY":28.0983,"EPHEMERIS_TYPE":0,"CLASSIFICATION_TYPE":"U","NORAD_CAT_ID":44741,"ELEMENT_SET_NO":999,"REV_AT_EPOCH":591,"BSTAR":0.0012828007,"MEAN_MOTION_DOT":0.00088221,"MEAN_MOTION_DDOT":0},{"OBJECT_NAME":"STARLINK-1039","OBJECT_ID":"2019-074AH","EPOCH":"2026-03-05T17:45:13.116960","MEAN_MOTION":15.212182,"ECCENTRICITY":0.00047682,"INCLINATION":53.0495,"RA_OF_ASC_NODE":233.244,"ARG_OF_PERICENTER":162.8399,"MEAN_ANOMALY":197.2758,"EPHEMERIS_TYPE":0,"CLASSIFICATION_TYPE":"U","NORAD_CAT_ID":44744,"ELEMENT_SET_NO":999,"REV_AT_EPOCH":34775,"BSTAR":0.0025782893,"MEAN_MOTION_DOT":0.00058422,"MEAN_MOTION_DDOT":0},{"OBJECT_NAME":"STARLINK-1042","OBJECT_ID":"2019-074AL","EPOCH":"2026-03-05T03:20:03.156288","MEAN_MOTION":15.49547159,"ECCENTRICITY":0.00019989,"INCLINATION":53.0435,"RA_OF_ASC_NODE":116.623,"ARG_OF_PERICENTER":113.2859,"MEAN_ANOMALY":246.836,"EPHEMERIS_TYPE":0,"CLASSIFICATION_TYPE":"U","NORAD_CAT_ID":44747,"ELEMENT_SET_NO":999,"REV_AT_EPOCH":34936,"BSTAR":0.00047773182,"MEAN_MOTION_DOT":0.00026437,"MEAN_MOTION_DDOT":0},{"OBJECT_NAME":"STARLINK-1043","OBJECT_ID":"2019-074AM","EPOCH":"2026-03-05T16:03:37.691136","MEAN_MOTION":15.53350843,"ECCENTRICITY":0.00022116,"INCLINATION":53.0532,"RA_OF_ASC_NODE":213.8926,"ARG_OF_PERICENTER":82.5361,"MEAN_ANOMALY":277.59,"EPHEMERIS_TYPE":0,"CLASSIFICATION_TYPE":"U","NORAD_CAT_ID":44748,"ELEMENT_SET_NO":999,"REV_AT_EPOCH":34802,"BSTAR":0.00060463462,"MEAN_MOTION_DOT":0.00038576,"MEAN_MOTION_DDOT":0},{"OBJECT_NAME":"STARLINK-1046","OBJECT_ID":"2019-074AQ","EPOCH":"2026-03-05T17:24:11.746944","MEAN_MOTION":15.43219142,"ECCENTRICITY":0.00060449,"INCLINATION":53.0539,"RA_OF_ASC_NODE":229.6856,"ARG_OF_PERICENTER":163.3016,"MEAN_ANOMALY":196.8189,"EPHEMERIS_TYPE":0,"CLASSIFICATION_TYPE":"U","NORAD_CAT_ID":44751,"ELEMENT_SET_NO":999,"REV_AT_EPOCH":34780,"BSTAR":0.00099698211,"MEAN_MOTION_DOT":0.00044828,"MEAN_MOTION_DDOT":0},{"OBJECT_NAME":"STARLINK-1047","OBJECT_ID":"2019-074AR","EPOCH":"2026-03-05T15:34:02.141760","MEAN_MOTION":15.32478754,"ECCENTRICITY":0.0002605,"INCLINATION":53.0704,"RA_OF_ASC_NODE":164.8845,"ARG_OF_PERICENTER":187.1374,"MEAN_ANOMALY":172.959,"EPHEMERIS_TYPE":0,"CLASSIFICATION_TYPE":"U","NORAD_CAT_ID":44752,"ELEMENT_SET_NO":999,"REV_AT_EPOCH":34872,"BSTAR":0.00039775,"MEAN_MOTION_DOT":0.00012301,"MEAN_MOTION_DDOT":0},{"OBJECT_NAME":"STARLINK-1048","OBJECT_ID":"2019-074AS","EPOCH":"2026-03-06T00:00:02.000160","MEAN_MOTION":15.52850282,"ECCENTRICITY":0.00010961,"INCLINATION":53.0522,"RA_OF_ASC_NODE":186.6287,"ARG_OF_PERICENTER":154.5183,"MEAN_ANOMALY":306.1567,"EPHEMERIS_TYPE":0,"CLASSIFICATION_TYPE":"U","NORAD_CAT_ID":44753,"ELEMENT_SET_NO":999,"REV_AT_EPOCH":585,"BSTAR":0.00063566923,"MEAN_MOTION_DOT":0.00039851,"MEAN_MOTION_DDOT":0},{"OBJECT_NAME":"STARLINK-1053","OBJECT_ID":"2019-074AX","EPOCH":"2026-03-06T00:00:02.000160","MEAN_MOTION":15.89811604,"ECCENTRICITY":0.00074143,"INCLINATION":53.0271,"RA_OF_ASC_NODE":102.2608,"ARG_OF_PERICENTER":41.529,"MEAN_ANOMALY":121.3033,"EPHEMERIS_TYPE":0,"CLASSIFICATION_TYPE":"U","NORAD_CAT_ID":44758,"ELEMENT_SET_NO":999,"REV_AT_EPOCH":596,"BSTAR":0.0010392956,"MEAN_MOTION_DOT":0.00313135,"MEAN_MOTION_DDOT":4.7087299e-5},{"OBJECT_NAME":"STARLINK-1063","OBJECT_ID":"2019-074BH","EPOCH":"2026-03-05T23:08:10.565952","MEAN_MOTION":15.29565483,"ECCENTRICITY":0.00022107,"INCLINATION":53.1571,"RA_OF_ASC_NODE":236.6997,"ARG_OF_PERICENTER":50.7414,"MEAN_ANOMALY":309.3782,"EPHEMERIS_TYPE":0,"CLASSIFICATION_TYPE":"U","NORAD_CAT_ID":44768,"ELEMENT_SET_NO":999,"REV_AT_EPOCH":34774,"BSTAR":-0.018708763,"MEAN_MOTION_DOT":-0.00508258,"MEAN_MOTION_DDOT":0},{"OBJECT_NAME":"STARLINK-1067","OBJECT_ID":"2019-074BL","EPOCH":"2026-03-06T00:00:02.000160","MEAN_MOTION":15.56670863,"ECCENTRICITY":0.00028874,"INCLINATION":53.0512,"RA_OF_ASC_NODE":222.0688,"ARG_OF_PERICENTER":320.2479,"MEAN_ANOMALY":198.4204,"EPHEMERIS_TYPE":0,"CLASSIFICATION_TYPE":"U","NORAD_CAT_ID":44771,"ELEMENT_SET_NO":999,"REV_AT_EPOCH":592,"BSTAR":0.0016719124,"MEAN_MOTION_DOT":0.00122791,"MEAN_MOTION_DDOT":0}]
