STARLINK-1008           
1 44714U 19074B   26064.65912661  .00003432  00000+0  12471-3 0  9994
2 44714  53.1581 197.5006 0001307  77.1641 282.9506 15.31051104348255
STARLINK-1012           
1 44718U 19074F   26064.70265502 -.00000051  00000+0  10391-4 0  9994
2 44718  53.1615 197.3258 0001118  76.5728 283.5398 15.30200993348250
STARLINK-1017           
1 44723U 19074L   26064.60848700  .00049765  00000+0  20470-2 0  9997
2 44723  53.0553 190.2852 0000926 104.4852 255.6247 15.23688500348342
STARLINK-1019           
1 44724U 19074M   26065.00002315  .00133756  00000+0  69020-3 0  9996
2 44724  53.0428 155.2499 0002273 187.0200 117.1129 15.80245230  5986
STARLINK-1020           
1 44725U 19074N   26064.81534972 -.00000594  00000+0 -79279-5 0  9998
2 44725  53.1618 221.8429 0001309  91.4407 268.6743 15.30188416347911
STARLINK-1031           
1 44736U 19074Z   26065.00002315  .00222099  00000+0  74722-3 0  9993
2 44736  53.0396 138.8326 0004258 345.7314  59.8670 15.88928768  5955
STARLINK-1036           
1 44741U 19074AE  26065.00002315  .00088221  00000+0  12828-2 0  9994
2 44741  53.0501 206.4018 0002889 249.5728  28.0983 15.55049333  5914
STARLINK-1039           
1 44744U 19074AH  26064.73973515  .00058422  00000+0  25783-2 0  9999
2 44744  53.0495 233.2440 0004768 162.8399 197.2758 15.21218200347759
STARLINK-1042           
1 44747U 19074AL  26064.13892542  .00026437  00000+0  47773-3 0  9991
2 44747  53.0435 116.6230 0001998 113.2859 246.8360 15.49547159349367
STARLINK-1043           
1 44748U 19074AM  26064.66918624  .00038576  00000+0  60463-3 0  9998
2 44748  53.0532 213.8926 0002211  82.5361 277.5900 15.53350843348023
STARLINK-1046           
1 44751U 19074AQ  26064.72513596  .00044828  00000+0  99698-3 0  9997
2 44751  53.0539 229.6856 0006044 163.3016 196.8189 15.43219142347806
STARLINK-1047           
1 44752U 19074AR  26064.64863590  .00012301  00000+0  39775-3 0  9992
2 44752  53.0704 164.8845 0002605 187.1374 172.9590 15.32478754348726
STARLINK-1048           
1 44753U 19074AS  26065.00002315  .00039851  00000+0  63567-3 0  9999
2 44753  53.0522 186.6287 0001096 154.5183 306.1567 15.52850282  5857
STARLINK-1053           
1 44758U 19074AX  26065.00002315  .00313135  47087-4  10393-2 0  9993
2 44758  53.0271 102.2608 0007414  41.5290 121.3033 15.89811604  5960
STARLINK-1063           
1 44768U 19074BH  26064.96401118 -.00508258  00000+0 -18709-1 0  9993
2 44768  53.1571 236.6997 0002210  50.7414 309.3782 15.29565483347746
STARLINK-1067           
1 44771U 19074BL  26065.00002315  .00122791  00000+0  16719-2 0  9991
2 44771  53.0512 222.0688 0002887 320.2479 198.4204 15.56670863  5922
